[{"OBJECT_NAME":"STARLINK-30222","OBJECT_ID":"2023-102F","EPOCH":"2026-03-09T22:00:01.999584","MEAN_MOTION":15.19444548,"ECCENTRICITY":0.00017493,"INCLINATION":42.9999,"RA_OF_ASC_NODE":246.6344,"ARG_OF_PERICENTER":283.4256,"MEAN_ANOMALY":32.335,"EPHEMERIS_TYPE":0,"CLASSIFICATION_TYPE":"U","NORAD_CAT_ID":57409,"ELEMENT_SET_NO":999,"REV_AT_EPOCH":572,"BSTAR":0.047434573,"MEAN_MOTION_DOT":0.01110087,"MEAN_MOTION_DDOT":0},{"OBJECT_NAME":"SATMAR","OBJECT_ID":"2025-135Z","EPOCH":"2026-03-09T20:30:41.171616","MEAN_MOTION":15.2332395,"ECCENTRICITY":8.237e-5,"INCLINATION":97.4487,"RA_OF_ASC_NODE":185.1397,"ARG_OF_PERICENTER":164.2564,"MEAN_ANOMALY":195.8698,"EPHEMERIS_TYPE":0,"CLASSIFICATION_TYPE":"U","NORAD_CAT_ID":64551,"ELEMENT_SET_NO":999,"REV_AT_EPOCH":3979,"BSTAR":0.00047484624,"MEAN_MOTION_DOT":0.0001121,"MEAN_MOTION_DDOT":0}]
